{
    "links": {
        "self": "http://www.neowsapp.com/rest/v1/neo/3279375?api_key=iIulBulltgU6a56xZRHN4H3l9WmuAYTsLGpBGhQ2"
    },
    "id": "3279375",
    "neo_reference_id": "3279375",
    "name": "(2005 LM3)",
    "designation": "2005 LM3",
    "nasa_jpl_url": "http://ssd.jpl.nasa.gov/sbdb.cgi?sstr=3279375",
    "absolute_magnitude_h": 26.5,
    "estimated_diameter": {
        "kilometers": {
            "estimated_diameter_min": 0.0133215567,
            "estimated_diameter_max": 0.0297879063
        },
        "meters": {
            "estimated_diameter_min": 13.3215566698,
            "estimated_diameter_max": 29.7879062798
        },
        "miles": {
            "estimated_diameter_min": 0.008277629,
            "estimated_diameter_max": 0.0185093411
        },
        "feet": {
            "estimated_diameter_min": 43.7058959846,
            "estimated_diameter_max": 97.7293544391
        }
    },
    "is_potentially_hazardous_asteroid": false,
    "close_approach_data": [
        {
            "close_approach_date": "1999-07-31",
            "close_approach_date_full": "1999-Jul-31 01:25",
            "epoch_date_close_approach": 933384300000,
            "relative_velocity": {
                "kilometers_per_second": "20.7401577556",
                "kilometers_per_hour": "74664.5679202439",
                "miles_per_hour": "46393.6588835538"
            },
            "miss_distance": {
                "astronomical": "0.474001822",
                "lunar": "184.386708758",
                "kilometers": "70909662.94731914",
                "miles": "44061221.409478532"
            },
            "orbiting_body": "Earth"
        },
        {
            "close_approach_date": "2002-07-13",
            "close_approach_date_full": "2002-Jul-13 22:11",
            "epoch_date_close_approach": 1026598260000,
            "relative_velocity": {
                "kilometers_per_second": "13.8676327372",
                "kilometers_per_hour": "49923.4778539135",
                "miles_per_hour": "31020.5076698387"
            },
            "miss_distance": {
                "astronomical": "0.2386047522",
                "lunar": "92.8172486058",
                "kilometers": "35694762.700997814",
                "miles": "22179697.0561812732"
            },
            "orbiting_body": "Earth"
        },
        {
            "close_approach_date": "2005-06-03",
            "close_approach_date_full": "2005-Jun-03 08:09",
            "epoch_date_close_approach": 1117786140000,
            "relative_velocity": {
                "kilometers_per_second": "8.6999373441",
                "kilometers_per_hour": "31319.77443867",
                "miles_per_hour": "19460.8898449614"
            },
            "miss_distance": {
                "astronomical": "0.0103763946",
                "lunar": "4.0364174994",
                "kilometers": "1552286.530439502",
                "miles": "964546.1234170476"
            },
            "orbiting_body": "Earth"
        },
        {
            "close_approach_date": "2011-04-14",
            "close_approach_date_full": "2011-Apr-14 18:06",
            "epoch_date_close_approach": 1302804360000,
            "relative_velocity": {
                "kilometers_per_second": "18.6478543773",
                "kilometers_per_hour": "67132.2757582012",
                "miles_per_hour": "41713.3854565334"
            },
            "miss_distance": {
                "astronomical": "0.3954828229",
                "lunar": "153.8428181081",
                "kilometers": "59163387.927427223",
                "miles": "36762424.5618247574"
            },
            "orbiting_body": "Earth"
        }
    ],
    "orbital_data": {
        "orbit_id": "7",
        "orbit_determination_date": "2017-04-06 09:10:55",
        "first_observation_date": "2005-06-01",
        "last_observation_date": "2005-06-05",
        "data_arc_in_days": 4,
        "observations_used": 22,
        "orbit_uncertainty": "7",
        "minimum_orbit_intersection": ".00800551",
        "jupiter_tisserand_invariant": "3.595",
        "epoch_osculation": "2459000.5",
        "eccentricity": ".5043824154621434",
        "semi_major_axis": "2.062276911378895",
        "inclination": "9.632859341089846",
        "ascending_node_longitude": "71.42705797548336",
        "orbital_period": "1081.730054585888",
        "perihelion_distance": "1.022100701465799",
        "perihelion_argument": "181.3832011068535",
        "aphelion_distance": "3.102453121291991",
        "perihelion_time": "2458938.478769130287",
        "mean_anomaly": "20.64067926969465",
        "mean_motion": ".3328002198642956",
        "equinox": "J2000",
        "orbit_class": {
            "orbit_class_type": "AMO",
            "orbit_class_description": "Near-Earth asteroid orbits similar to that of 1221 Amor",
            "orbit_class_range": "1.017 AU < q (perihelion) < 1.3 AU"
        }
    },
    "is_sentry_object": false
}